STARLINK-1559
1 16077C 20055BC  21326.14090494  .00003239  00000-0  21697-3 0  3260
2 16077  53.0527 298.1067 0001695  62.2167  44.6457 15.06399376    16
